[{"OBJECT_NAME":"HYPERFIELD-1A","OBJECT_ID":"2024-149CY","EPOCH":"2026-03-09T18:21:25.814304","MEAN_MOTION":15.29681349,"ECCENTRICITY":0.00038648,"INCLINATION":97.3842,"RA_OF_ASC_NODE":149.5066,"ARG_OF_PERICENTER":313.7844,"MEAN_ANOMALY":46.3076,"EPHEMERIS_TYPE":0,"CLASSIFICATION_TYPE":"U","NORAD_CAT_ID":60562,"ELEMENT_SET_NO":999,"REV_AT_EPOCH":8683,"BSTAR":0.00030052114,"MEAN_MOTION_DOT":8.569e-5,"MEAN_MOTION_DDOT":0},{"OBJECT_NAME":"STARLINK-32342","OBJECT_ID":"2024-171T","EPOCH":"2026-03-09T22:01:53.770944","MEAN_MOTION":15.30235542,"ECCENTRICITY":9.571e-5,"INCLINATION":53.1604,"RA_OF_ASC_NODE":321.3674,"ARG_OF_PERICENTER":46.0361,"MEAN_ANOMALY":314.0719,"EPHEMERIS_TYPE":0,"CLASSIFICATION_TYPE":"U","NORAD_CAT_ID":61217,"ELEMENT_SET_NO":999,"REV_AT_EPOCH":8331,"BSTAR":-0.00024900234,"MEAN_MOTION_DOT":-7.734e-5,"MEAN_MOTION_DDOT":0}]
